{"type": "FeatureCollection", "features": [ {"type": "Feature", "properties": {"norad_id": 31091, "name": "FENGYUN 1C DEB", "group": "fengyun-1c-debris", "lat": -70.0972703013066, "lon": 4.2374115138579675, "alt_km": 848.9800178850692, "timestamp": "2025-12-27T11:23:20.178043+00:00", "meta": {"OBJECT_NAME": "FENGYUN 1C DEB", "OBJECT_ID": "1999-025BGM", "EPOCH": "2025-12-26T21:32:36.544416", "MEAN_MOTION": 13.54164177, "ECCENTRICITY": 0.0290049, "INCLINATION": 99.2264, "RA_OF_ASC_NODE": 337.0233, "ARG_OF_PERICENTER": 293.0788, "MEAN_ANOMALY": 64.0018, "EPHEMERIS_TYPE": 0, "CLASSIFICATION_TYPE": "U", "NORAD_CAT_ID": 31091, "ELEMENT_SET_NO": 999, "REV_AT_EPOCH": 61831, "BSTAR": 0.0007487, "MEAN_MOTION_DOT": 6.22e-06, "MEAN_MOTION_DDOT": 0}, "tle": {"line1": "1 31091U 99025BGM 25360.89764519  .00000622  00000+0  74870-3 0  9992", "line2": "2 31091  99.2264 337.0233 0290049 293.0788  64.0018 13.54164177618317"}}, "geometry": {"type": "Point", "coordinates": [4.2374115138579675, -70.0972703013066]}}, {"type": "Feature", "properties": {"norad_id": 31092, "name": "FENGYUN 1C DEB", "group": "fengyun-1c-debris", "lat": -67.84342547150722, "lon": -87.97108496401782, "alt_km": 1300.4049282028454, "timestamp": "2025-12-27T11:23:20.178054+00:00", "meta": {"OBJECT_NAME": "FENGYUN 1C DEB", "OBJECT_ID": "1999-025BGN", "EPOCH": "2025-12-24T01:55:59.996928", "MEAN_MOTION": 13.46554727, "ECCENTRICITY": 0.0327048, "INCLINATION": 99.718, "RA_OF_ASC_NODE": 113.6183, "ARG_OF_PERICENTER": 108.8069, "MEAN_ANOMALY": 254.8834, "EPHEMERIS_TYPE": 0, "CLASSIFICATION_TYPE": "U", "NORAD_CAT_ID": 31092, "ELEMENT_SET_NO": 999, "REV_AT_EPOCH": 92034, "BSTAR": 0.0011496319, "MEAN_MOTION_DOT": 9.18e-06, "MEAN_MOTION_DDOT": 0}, "tle": {"line1": "1 31092U 99025BGN 25358.08055552  .00000918  00000+0  11496-2 0  9993", "line2": "2 31092  99.7180 113.6183 0327048 108.8069 254.8834 13.46554727920346"}}, "geometry": {"type": "Point", "coordinates": [-87.97108496401782, -67.84342547150722]}}, {"type": "Feature", "properties": {"norad_id": 31093, "name": "FENGYUN 1C DEB", "group": "fengyun-1c-debris", "lat": 46.71723212396479, "lon": -170.08073805366666, "alt_km": 1065.3874900570672, "timestamp": "2025-12-27T11:23:20.178063+00:00", "meta": {"OBJECT_NAME": "FENGYUN 1C DEB", "OBJECT_ID": "1999-025BGP", "EPOCH": "2025-12-26T12:32:25.155168", "MEAN_MOTION": 13.8064514, "ECCENTRICITY": 0.0208505, "INCLINATION": 98.5946, "RA_OF_ASC_NODE": 198.2932, "ARG_OF_PERICENTER": 185.7591, "MEAN_ANOMALY": 174.1163, "EPHEMERIS_TYPE": 0, "CLASSIFICATION_TYPE": "U", "NORAD_CAT_ID": 31093, "ELEMENT_SET_NO": 999, "REV_AT_EPOCH": 94697, "BSTAR": 0.00039156, "MEAN_MOTION_DOT": 4.46e-06, "MEAN_MOTION_DDOT": 0}, "tle": {"line1": "1 31093U 99025BGP 25360.52251337  .00000446  00000+0  39156-3 0  9995", "line2": "2 31093  98.5946 198.2932 0208505 185.7591 174.1163 13.80645140946979"}}, "geometry": {"type": "Point", "coordinates": [-170.08073805366666, 46.71723212396479]}}, {"type": "Feature", "properties": {"norad_id": 31094, "name": "FENGYUN 1C DEB", "group": "fengyun-1c-debris", "lat": -48.255941723216466, "lon": 38.853147045479794, "alt_km": 949.7486338811505, "timestamp": "2025-12-27T11:23:20.178073+00:00", "meta": {"OBJECT_NAME": "FENGYUN 1C DEB", "OBJECT_ID": "1999-025BGQ", "EPOCH": "2025-12-26T22:18:30.902112", "MEAN_MOTION": 14.0211519, "ECCENTRICITY": 0.0106528, "INCLINATION": 98.8566, "RA_OF_ASC_NODE": 228.3864, "ARG_OF_PERICENTER": 7.7672, "MEAN_ANOMALY": 352.5114, "EPHEMERIS_TYPE": 0, "CLASSIFICATION_TYPE": "U", "NORAD_CAT_ID": 31094, "ELEMENT_SET_NO": 999, "REV_AT_EPOCH": 95818, "BSTAR": 0.0019402, "MEAN_MOTION_DOT": 3.074e-05, "MEAN_MOTION_DDOT": 0}, "tle": {"line1": "1 31094U 99025BGQ 25360.92952433  .00003074  00000+0  19402-2 0  9996", "line2": "2 31094  98.8566 228.3864 0106528   7.7672 352.5114 14.02115190958181"}}, "geometry": {"type": "Point", "coordinates": [38.853147045479794, -48.255941723216466]}}, {"type": "Feature", "properties": {"norad_id": 31095, "name": "FENGYUN 1C DEB", "group": "fengyun-1c-debris", "lat": -49.89604122575896, "lon": 151.29791423017204, "alt_km": 1577.4556337045997, "timestamp": "2025-12-27T11:23:20.178083+00:00", "meta": {"OBJECT_NAME": "FENGYUN 1C DEB", "OBJECT_ID": "1999-025BGR", "EPOCH": "2025-12-24T02:48:44.654400", "MEAN_MOTION": 13.06670618, "ECCENTRICITY": 0.05001499, "INCLINATION": 98.5625, "RA_OF_ASC_NODE": 138.3042, "ARG_OF_PERICENTER": 164.6493, "MEAN_ANOMALY": 197.044, "EPHEMERIS_TYPE": 0, "CLASSIFICATION_TYPE": "U", "NORAD_CAT_ID": 31095, "ELEMENT_SET_NO": 999, "REV_AT_EPOCH": 89596, "BSTAR": -0.00036805939, "MEAN_MOTION_DOT": -2.53e-06, "MEAN_MOTION_DDOT": 0}, "tle": {"line1": "1 31095U 99025BGR 25358.11718350 -.00000253  00000+0 -36806-3 0  9999", "line2": "2 31095  98.5625 138.3042 0500149 164.6493 197.0440 13.06670618895968"}}, "geometry": {"type": "Point", "coordinates": [151.29791423017204, -49.89604122575896]}}, {"type": "Feature", "properties": {"norad_id": 31097, "name": "FENGYUN 1C DEB", "group": "fengyun-1c-debris", "lat": 41.04544830722535, "lon": -47.26142869456428, "alt_km": 731.2346369996158, "timestamp": "2025-12-27T11:23:20.178094+00:00", "meta": {"OBJECT_NAME": "FENGYUN 1C DEB", "OBJECT_ID": "1999-025BGT", "EPOCH": "2025-12-26T13:47:34.759104", "MEAN_MOTION": 14.47256286, "ECCENTRICITY": 0.0015929, "INCLINATION": 98.8593, "RA_OF_ASC_NODE": 123.9923, "ARG_OF_PERICENTER": 230.9264, "MEAN_ANOMALY": 261.9551, "EPHEMERIS_TYPE": 0, "CLASSIFICATION_TYPE": "U", "NORAD_CAT_ID": 31097, "ELEMENT_SET_NO": 999, "REV_AT_EPOCH": 97238, "BSTAR": 0.0031014, "MEAN_MOTION_DOT": 0.00011328, "MEAN_MOTION_DDOT": 0}, "tle": {"line1": "1 31097U 99025BGT 25360.57470786  .00011328  00000+0  31014-2 0  9990", "line2": "2 31097  98.8593 123.9923 0015929 230.9264 261.9551 14.47256286972388"}}, "geometry": {"type": "Point", "coordinates": [-47.26142869456428, 41.04544830722535]}}, {"type": "Feature", "properties": {"norad_id": 31098, "name": "FENGYUN 1C DEB", "group": "fengyun-1c-debris", "lat": -66.66852233101632, "lon": -80.98587775972298, "alt_km": 718.1431440897513, "timestamp": "2025-12-27T11:23:20.178104+00:00", "meta": {"OBJECT_NAME": "FENGYUN 1C DEB", "OBJECT_ID": "1999-025BGU", "EPOCH": "2025-12-27T01:58:44.002272", "MEAN_MOTION": 14.5186779, "ECCENTRICITY": 0.0015479, "INCLINATION": 98.8694, "RA_OF_ASC_NODE": 119.8254, "ARG_OF_PERICENTER": 210.7824, "MEAN_ANOMALY": 149.2463, "EPHEMERIS_TYPE": 0, "CLASSIFICATION_TYPE": "U", "NORAD_CAT_ID": 31098, "ELEMENT_SET_NO": 999, "REV_AT_EPOCH": 97165, "BSTAR": 0.0038739, "MEAN_MOTION_DOT": 0.00015614, "MEAN_MOTION_DDOT": 0}, "tle": {"line1": "1 31098U 99025BGU 25361.08245373  .00015614  00000+0  38739-2 0  9993", "line2": "2 31098  98.8694 119.8254 0015479 210.7824 149.2463 14.51867790971652"}}, "geometry": {"type": "Point", "coordinates": [-80.98587775972298, -66.66852233101632]}}, {"type": "Feature", "properties": {"norad_id": 31099, "name": "FENGYUN 1C DEB", "group": "fengyun-1c-debris", "lat": -73.69317954924112, "lon": 41.753357047380796, "alt_km": 763.2887603197632, "timestamp": "2025-12-27T11:23:20.178114+00:00", "meta": {"OBJECT_NAME": "FENGYUN 1C DEB", "OBJECT_ID": "1999-025BGV", "EPOCH": "2025-12-27T04:11:37.440096", "MEAN_MOTION": 14.27943104, "ECCENTRICITY": 0.0062433, "INCLINATION": 98.938, "RA_OF_ASC_NODE": 253.9907, "ARG_OF_PERICENTER": 238.9604, "MEAN_ANOMALY": 276.8123, "EPHEMERIS_TYPE": 0, "CLASSIFICATION_TYPE": "U", "NORAD_CAT_ID": 31099, "ELEMENT_SET_NO": 999, "REV_AT_EPOCH": 97677, "BSTAR": 0.00031802, "MEAN_MOTION_DOT": 7.58e-06, "MEAN_MOTION_DDOT": 0}, "tle": {"line1": "1 31099U 99025BGV 25361.17473889  .00000758  00000+0  31802-3 0  9997", "line2": "2 31099  98.9380 253.9907 0062433 238.9604 276.8123 14.27943104976776"}}, "geometry": {"type": "Point", "coordinates": [41.753357047380796, -73.69317954924112]}}, {"type": "Feature", "properties": {"norad_id": 31146, "name": "FENGYUN 1C DEB", "group": "fengyun-1c-debris", "lat": 73.66280828361668, "lon": 145.67072171667576, "alt_km": 648.7655280194022, "timestamp": "2025-12-27T11:23:20.178124+00:00", "meta": {"OBJECT_NAME": "FENGYUN 1C DEB", "OBJECT_ID": "1999-025BGY", "EPOCH": "2025-12-26T13:02:43.444032", "MEAN_MOTION": 14.27732881, "ECCENTRICITY": 0.0213186, "INCLINATION": 99.043, "RA_OF_ASC_NODE": 291.798, "ARG_OF_PERICENTER": 127.1364, "MEAN_ANOMALY": 234.9501, "EPHEMERIS_TYPE": 0, "CLASSIFICATION_TYPE": "U", "NORAD_CAT_ID": 31146, "ELEMENT_SET_NO": 999, "REV_AT_EPOCH": 96962, "BSTAR": 0.00035667, "MEAN_MOTION_DOT": 1.071e-05, "MEAN_MOTION_DDOT": 0}, "tle": {"line1": "1 31146U 99025BGY 25360.54355838  .00001071  00000+0  35667-3 0  9995", "line2": "2 31146  99.0430 291.7980 0213186 127.1364 234.9501 14.27732881969622"}}, "geometry": {"type": "Point", "coordinates": [145.67072171667576, 73.66280828361668]}}, {"type": "Feature", "properties": {"norad_id": 31148, "name": "FENGYUN 1C DEB", "group": "fengyun-1c-debris", "lat": 23.731132691625078, "lon": -116.28698531084795, "alt_km": 653.5514196916229, "timestamp": "2025-12-27T11:23:20.178134+00:00", "meta": {"OBJECT_NAME": "FENGYUN 1C DEB", "OBJECT_ID": "1999-025BHA", "EPOCH": "2025-12-26T15:19:03.238752", "MEAN_MOTION": 14.4344764, "ECCENTRICITY": 0.0136309, "INCLINATION": 98.8649, "RA_OF_ASC_NODE": 246.7768, "ARG_OF_PERICENTER": 9.5997, "MEAN_ANOMALY": 350.7748, "EPHEMERIS_TYPE": 0, "CLASSIFICATION_TYPE": "U", "NORAD_CAT_ID": 31148, "ELEMENT_SET_NO": 999, "REV_AT_EPOCH": 97731, "BSTAR": 0.0010209, "MEAN_MOTION_DOT": 3.81e-05, "MEAN_MOTION_DDOT": 0}, "tle": {"line1": "1 31148U 99025BHA 25360.63823193  .00003810  00000+0  10209-2 0  9998", "line2": "2 31148  98.8649 246.7768 0136309   9.5997 350.7748 14.43447640977312"}}, "geometry": {"type": "Point", "coordinates": [-116.28698531084795, 23.731132691625078]}}]}